{"type": "FeatureCollection", "features": [ {"type": "Feature", "properties": {"norad_id": 66559, "name": "STARLINK-35419", "group": "last-30-days", "lat": -40.09647984352955, "lon": 67.29255507844103, "alt_km": 417.31029401868545, "timestamp": "2025-12-10T21:43:20.862297+00:00", "meta": {"OBJECT_NAME": "STARLINK-35419", "OBJECT_ID": "2025-268C", "EPOCH": "2025-12-10T14:00:03.000384", "MEAN_MOTION": 15.50620994, "ECCENTRICITY": 0.00016998, "INCLINATION": 43.0002, "RA_OF_ASC_NODE": 133.803, "ARG_OF_PERICENTER": 265.0896, "MEAN_ANOMALY": 25.9623, "EPHEMERIS_TYPE": 0, "CLASSIFICATION_TYPE": "U", "NORAD_CAT_ID": 66559, "ELEMENT_SET_NO": 999, "REV_AT_EPOCH": 432, "BSTAR": -0.002071458, "MEAN_MOTION_DOT": -0.001202, "MEAN_MOTION_DDOT": 0}, "tle": {"line1": "1 66559U 25268C   25344.58336806 -.00120200  00000+0 -20715-2 0  9994", "line2": "2 66559  43.0002 133.8030 0001699 265.0896  25.9623 15.50620994  4328"}}, "geometry": {"type": "Point", "coordinates": [67.29255507844103, -40.09647984352955]}}, {"type": "Feature", "properties": {"norad_id": 66560, "name": "STARLINK-35411", "group": "last-30-days", "lat": -39.515765395303184, "lon": 69.64922904971586, "alt_km": 417.22740485170925, "timestamp": "2025-12-10T21:43:20.862312+00:00", "meta": {"OBJECT_NAME": "STARLINK-35411", "OBJECT_ID": "2025-268D", "EPOCH": "2025-12-10T14:00:03.000384", "MEAN_MOTION": 15.50590534, "ECCENTRICITY": 0.00016999, "INCLINATION": 43, "RA_OF_ASC_NODE": 133.798, "ARG_OF_PERICENTER": 270.247, "MEAN_ANOMALY": 22.7238, "EPHEMERIS_TYPE": 0, "CLASSIFICATION_TYPE": "U", "NORAD_CAT_ID": 66560, "ELEMENT_SET_NO": 999, "REV_AT_EPOCH": 432, "BSTAR": -0.00092075575, "MEAN_MOTION_DOT": -0.0005401, "MEAN_MOTION_DDOT": 0}, "tle": {"line1": "1 66560U 25268D   25344.58336806 -.00054010  00000+0 -92076-3 0  9991", "line2": "2 66560  43.0000 133.7980 0001699 270.2470  22.7238 15.50590534  4320"}}, "geometry": {"type": "Point", "coordinates": [69.64922904971586, -39.515765395303184]}}, {"type": "Feature", "properties": {"norad_id": 66561, "name": "STARLINK-35305", "group": "last-30-days", "lat": -38.20326732207485, "lon": 74.28014166278497, "alt_km": 417.33772716056046, "timestamp": "2025-12-10T21:43:20.862325+00:00", "meta": {"OBJECT_NAME": "STARLINK-35305", "OBJECT_ID": "2025-268E", "EPOCH": "2025-12-10T14:00:03.000384", "MEAN_MOTION": 15.50626398, "ECCENTRICITY": 0.00016167, "INCLINATION": 43.0001, "RA_OF_ASC_NODE": 133.7885, "ARG_OF_PERICENTER": 263.8453, "MEAN_ANOMALY": 32.9598, "EPHEMERIS_TYPE": 0, "CLASSIFICATION_TYPE": "U", "NORAD_CAT_ID": 66561, "ELEMENT_SET_NO": 999, "REV_AT_EPOCH": 427, "BSTAR": -0.0022552823, "MEAN_MOTION_DOT": -0.00130687, "MEAN_MOTION_DDOT": 0}, "tle": {"line1": "1 66561U 25268E   25344.58336806 -.00130687  00000+0 -22553-2 0  9999", "line2": "2 66561  43.0001 133.7885 0001616 263.8453  32.9598 15.50626398  4278"}}, "geometry": {"type": "Point", "coordinates": [74.28014166278497, -38.20326732207485]}}, {"type": "Feature", "properties": {"norad_id": 66562, "name": "STARLINK-35579", "group": "last-30-days", "lat": -38.88512334091591, "lon": 71.97634162929872, "alt_km": 417.2171101810227, "timestamp": "2025-12-10T21:43:20.862335+00:00", "meta": {"OBJECT_NAME": "STARLINK-35579", "OBJECT_ID": "2025-268F", "EPOCH": "2025-12-10T14:00:03.000384", "MEAN_MOTION": 15.50586053, "ECCENTRICITY": 0.0001685, "INCLINATION": 43.0002, "RA_OF_ASC_NODE": 133.7923, "ARG_OF_PERICENTER": 269.4817, "MEAN_ANOMALY": 25.4064, "EPHEMERIS_TYPE": 0, "CLASSIFICATION_TYPE": "U", "NORAD_CAT_ID": 66562, "ELEMENT_SET_NO": 999, "REV_AT_EPOCH": 432, "BSTAR": -0.00071541641, "MEAN_MOTION_DOT": -0.00042098, "MEAN_MOTION_DDOT": 0}, "tle": {"line1": "1 66562U 25268F   25344.58336806 -.00042098  00000+0 -71542-3 0  9991", "line2": "2 66562  43.0002 133.7923 0001685 269.4817  25.4064 15.50586053  4329"}}, "geometry": {"type": "Point", "coordinates": [71.97634162929872, -38.88512334091591]}}, {"type": "Feature", "properties": {"norad_id": 66563, "name": "STARLINK-35437", "group": "last-30-days", "lat": -37.484804240088884, "lon": 76.51596511557213, "alt_km": 417.3112264006804, "timestamp": "2025-12-10T21:43:20.862345+00:00", "meta": {"OBJECT_NAME": "STARLINK-35437", "OBJECT_ID": "2025-268G", "EPOCH": "2025-12-10T14:00:03.000384", "MEAN_MOTION": 15.50625798, "ECCENTRICITY": 0.00016142, "INCLINATION": 43.0002, "RA_OF_ASC_NODE": 133.7834, "ARG_OF_PERICENTER": 264.3445, "MEAN_ANOMALY": 34.3718, "EPHEMERIS_TYPE": 0, "CLASSIFICATION_TYPE": "U", "NORAD_CAT_ID": 66563, "ELEMENT_SET_NO": 999, "REV_AT_EPOCH": 432, "BSTAR": -0.0021790321, "MEAN_MOTION_DOT": -0.00126346, "MEAN_MOTION_DDOT": 0}, "tle": {"line1": "1 66563U 25268G   25344.58336806 -.00126346  00000+0 -21790-2 0  9990", "line2": "2 66563  43.0002 133.7834 0001614 264.3445  34.3718 15.50625798  4329"}}, "geometry": {"type": "Point", "coordinates": [76.51596511557213, -37.484804240088884]}}, {"type": "Feature", "properties": {"norad_id": 66564, "name": "STARLINK-35358", "group": "last-30-days", "lat": -36.7215931278218, "lon": 78.71697794341338, "alt_km": 417.2457231000981, "timestamp": "2025-12-10T21:43:20.862355+00:00", "meta": {"OBJECT_NAME": "STARLINK-35358", "OBJECT_ID": "2025-268H", "EPOCH": "2025-12-10T14:00:03.000384", "MEAN_MOTION": 15.50634584, "ECCENTRICITY": 0.00016497, "INCLINATION": 43.0001, "RA_OF_ASC_NODE": 133.7789, "ARG_OF_PERICENTER": 267.1343, "MEAN_ANOMALY": 33.4975, "EPHEMERIS_TYPE": 0, "CLASSIFICATION_TYPE": "U", "NORAD_CAT_ID": 66564, "ELEMENT_SET_NO": 999, "REV_AT_EPOCH": 427, "BSTAR": -0.0024347226, "MEAN_MOTION_DOT": -0.00140917, "MEAN_MOTION_DDOT": 0}, "tle": {"line1": "1 66564U 25268H   25344.58336806 -.00140917  00000+0 -24347-2 0  9992", "line2": "2 66564  43.0001 133.7789 0001649 267.1343  33.4975 15.50634584  4276"}}, "geometry": {"type": "Point", "coordinates": [78.71697794341338, -36.7215931278218]}}, {"type": "Feature", "properties": {"norad_id": 66565, "name": "STARLINK-35893", "group": "last-30-days", "lat": -35.92435424828343, "lon": 80.85773391810206, "alt_km": 417.1488721244932, "timestamp": "2025-12-10T21:43:20.862368+00:00", "meta": {"OBJECT_NAME": "STARLINK-35893", "OBJECT_ID": "2025-268J", "EPOCH": "2025-12-10T14:00:03.000384", "MEAN_MOTION": 15.50586924, "ECCENTRICITY": 0.00016918, "INCLINATION": 43.0002, "RA_OF_ASC_NODE": 133.7733, "ARG_OF_PERICENTER": 268.0484, "MEAN_ANOMALY": 34.5081, "EPHEMERIS_TYPE": 0, "CLASSIFICATION_TYPE": "U", "NORAD_CAT_ID": 66565, "ELEMENT_SET_NO": 999, "REV_AT_EPOCH": 432, "BSTAR": -0.00075213209, "MEAN_MOTION_DOT": -0.0004423, "MEAN_MOTION_DDOT": 0}, "tle": {"line1": "1 66565U 25268J   25344.58336806 -.00044230  00000+0 -75213-3 0  9993", "line2": "2 66565  43.0002 133.7733 0001691 268.0484  34.5081 15.50586924  4320"}}, "geometry": {"type": "Point", "coordinates": [80.85773391810206, -35.92435424828343]}}, {"type": "Feature", "properties": {"norad_id": 66566, "name": "STARLINK-35871", "group": "last-30-days", "lat": -35.080093431250226, "lon": 82.97812843462908, "alt_km": 417.2746285589574, "timestamp": "2025-12-10T21:43:20.862378+00:00", "meta": {"OBJECT_NAME": "STARLINK-35871", "OBJECT_ID": "2025-268K", "EPOCH": "2025-12-10T14:00:03.000384", "MEAN_MOTION": 15.50614106, "ECCENTRICITY": 0.00015883, "INCLINATION": 43.0001, "RA_OF_ASC_NODE": 133.7683, "ARG_OF_PERICENTER": 263.3897, "MEAN_ANOMALY": 41.0863, "EPHEMERIS_TYPE": 0, "CLASSIFICATION_TYPE": "U", "NORAD_CAT_ID": 66566, "ELEMENT_SET_NO": 999, "REV_AT_EPOCH": 432, "BSTAR": -0.0018703526, "MEAN_MOTION_DOT": -0.00108694, "MEAN_MOTION_DDOT": 0}, "tle": {"line1": "1 66566U 25268K   25344.58336806 -.00108694  00000+0 -18704-2 0  9990", "line2": "2 66566  43.0001 133.7683 0001588 263.3897  41.0863 15.50614106  4320"}}, "geometry": {"type": "Point", "coordinates": [82.97812843462908, -35.080093431250226]}}, {"type": "Feature", "properties": {"norad_id": 66567, "name": "STARLINK-35825", "group": "last-30-days", "lat": -34.10322441910991, "lon": 85.27406294420364, "alt_km": 416.1504723937833, "timestamp": "2025-12-10T21:43:20.862388+00:00", "meta": {"OBJECT_NAME": "STARLINK-35825", "OBJECT_ID": "2025-268L", "EPOCH": "2025-12-10T14:00:03.000384", "MEAN_MOTION": 15.5068894, "ECCENTRICITY": 0.0002079, "INCLINATION": 43, "RA_OF_ASC_NODE": 133.7636, "ARG_OF_PERICENTER": 281.3747, "MEAN_ANOMALY": 25.0696, "EPHEMERIS_TYPE": 0, "CLASSIFICATION_TYPE": "U", "NORAD_CAT_ID": 66567, "ELEMENT_SET_NO": 999, "REV_AT_EPOCH": 432, "BSTAR": 0.0018273599, "MEAN_MOTION_DOT": 0.00108791, "MEAN_MOTION_DDOT": 0}, "tle": {"line1": "1 66567U 25268L   25344.58336806  .00108791  00000+0  18274-2 0  9999", "line2": "2 66567  43.0000 133.7636 0002079 281.3747  25.0696 15.50688940  4321"}}, "geometry": {"type": "Point", "coordinates": [85.27406294420364, -34.10322441910991]}}, {"type": "Feature", "properties": {"norad_id": 66568, "name": "STARLINK-35803", "group": "last-30-days", "lat": -33.29486146863372, "lon": 87.06410817209222, "alt_km": 417.2866877575143, "timestamp": "2025-12-10T21:43:20.862400+00:00", "meta": {"OBJECT_NAME": "STARLINK-35803", "OBJECT_ID": "2025-268M", "EPOCH": "2025-12-10T14:00:03.000384", "MEAN_MOTION": 15.50614117, "ECCENTRICITY": 0.00014751, "INCLINATION": 43.0001, "RA_OF_ASC_NODE": 133.7581, "ARG_OF_PERICENTER": 262.9795, "MEAN_ANOMALY": 45.3311, "EPHEMERIS_TYPE": 0, "CLASSIFICATION_TYPE": "U", "NORAD_CAT_ID": 66568, "ELEMENT_SET_NO": 999, "REV_AT_EPOCH": 432, "BSTAR": -0.0018938188, "MEAN_MOTION_DOT": -0.00110033, "MEAN_MOTION_DDOT": 0}, "tle": {"line1": "1 66568U 25268M   25344.58336806 -.00110033  00000+0 -18938-2 0  9991", "line2": "2 66568  43.0001 133.7581 0001475 262.9795  45.3311 15.50614117  4323"}}, "geometry": {"type": "Point", "coordinates": [87.06410817209222, -33.29486146863372]}}]}